<?xml version="1.0" encoding="UTF-8"?>
<kml xmlns="http://www.opengis.net/kml/2.2">
  <Document>
    <name>T01 · Campo Limpo</name>
    <description>Poligonos importados do Google Earth (territory-boundaries.json).</description>
    
    <Placemark>
      <name>T01 - Campo Limpo</name>
      <description><![CDATA[Importado de t01.kml (1 poligono(s), 5 pontos)]]></description>
      <Style>
        <LineStyle><color>ff00d6ff</color><width>3.5</width></LineStyle>
        <PolyStyle><color>4600d6ff</color></PolyStyle>
      </Style>
      <Polygon><outerBoundaryIs><LinearRing><coordinates>-46.7797947,-23.6390096,0 -46.7788148,-23.63769455,0 -46.777254150000005,-23.6348424,0 -46.77610545,-23.6339768,0 -46.7754232,-23.6347159,0 -46.7797947,-23.6390096,0</coordinates></LinearRing></outerBoundaryIs></Polygon>
    </Placemark>
  </Document>
</kml>
