<?xml version="1.0" encoding="UTF-8"?>
<kml xmlns="http://www.opengis.net/kml/2.2">
  <Document>
    <name>T02 · Jardim Elizabeth A</name>
    <description>Poligonos reconstruidos via intersecoes OSM (Jul 2026). CDHU requer ajuste fino no Earth.</description>
    
    <Placemark>
      <name>T02 - Jardim Elizabeth A</name>
      <description><![CDATA[Rua José Cabral x Rua Hermes Ribeiro de Fr; Rua Hermes Ribeiro de Fr x Rua Januário da Cunha Ba; Rua Januário da Cunha Ba x Rua José Cabral]]></description>
      
      <Style>
        <LineStyle><color>ff00d6ff</color><width>3.5</width></LineStyle>
        <PolyStyle><color>4600d6ff</color></PolyStyle>
      </Style>
      <Polygon><outerBoundaryIs><LinearRing><coordinates>-46.7749016,-23.638302,0 -46.7734438,-23.6401531,0 -46.7763136,-23.6392158,0 -46.7765241,-23.638964100000003,0 -46.7749016,-23.638302,0</coordinates></LinearRing></outerBoundaryIs></Polygon>
    </Placemark>
  </Document>
</kml>
