<?xml version="1.0" encoding="UTF-8"?>
<kml xmlns="http://www.opengis.net/kml/2.2">
  <Document>
    <name>T03 · Jardim Elizabeth B</name>
    <description>Poligonos importados do Google Earth (territory-boundaries.json).</description>
    
    <Style id="terrStyle">
      <LineStyle><color>ffd600ff</color><width>3.5</width></LineStyle>
      <PolyStyle><color>46ffd600</color></PolyStyle>
    </Style>
    
    <Placemark>
      <name>T03 - Jardim Elizabeth B</name>
      <description><![CDATA[[needs_review] Importado de t03.kml (1 poligono(s), 4 pontos)]]></description>
      <styleUrl>#terrStyle</styleUrl>
      <Polygon><outerBoundaryIs><LinearRing><coordinates>-46.77559,-23.637406,0 -46.776945,-23.638306,0 -46.776393,-23.638942,0 -46.773444,-23.640153,0 -46.77559,-23.637406,0</coordinates></LinearRing></outerBoundaryIs></Polygon>
    </Placemark>
  </Document>
</kml>
