<?xml version="1.0" encoding="UTF-8"?>
<kml xmlns="http://www.opengis.net/kml/2.2">
  <Document>
    <name>T04 · Jardim Elizabeth C</name>
    <description>Poligonos importados do Google Earth (territory-boundaries.json).</description>
    
    <Placemark>
      <name>T04 - Jardim Elizabeth C</name>
      <description><![CDATA[Importado de t04.kml (1 poligono(s), 4 pontos)]]></description>
      <Style>
        <LineStyle><color>ff00d6ff</color><width>3.5</width></LineStyle>
        <PolyStyle><color>4600d6ff</color></PolyStyle>
      </Style>
      <Polygon><outerBoundaryIs><LinearRing><coordinates>-46.775592950000004,-23.634909999999998,0 -46.7755897,-23.6374057,0 -46.7769447,-23.6383065,0 -46.775955350000004,-23.6351207,0 -46.775592950000004,-23.634909999999998,0</coordinates></LinearRing></outerBoundaryIs></Polygon>
    </Placemark>
  </Document>
</kml>
