<?xml version="1.0" encoding="UTF-8"?>
<kml xmlns="http://www.opengis.net/kml/2.2">
  <Document>
    <name>T06 · Vila Pirajussara</name>
    <description>Poligonos importados do Google Earth (territory-boundaries.json).</description>
    
    <Style id="terrStyle">
      <LineStyle><color>ffd600ff</color><width>3.5</width></LineStyle>
      <PolyStyle><color>46ffd600</color></PolyStyle>
    </Style>
    
    <Placemark>
      <name>T06 - Vila Pirajussara</name>
      <description><![CDATA[[needs_review] Importado de t06.kml (1 poligono(s), 4 pontos)]]></description>
      <styleUrl>#terrStyle</styleUrl>
      <Polygon><outerBoundaryIs><LinearRing><coordinates>-46.77393,-23.638499,0 -46.773134,-23.640354,0 -46.773416,-23.640432,0 -46.774135,-23.638766,0 -46.77393,-23.638499,0</coordinates></LinearRing></outerBoundaryIs></Polygon>
    </Placemark>
  </Document>
</kml>
