<?xml version="1.0" encoding="UTF-8"?>
<kml xmlns="http://www.opengis.net/kml/2.2">
  <Document>
    <name>T07 · Jardim Iracema A</name>
    <description>Poligonos importados do Google Earth (territory-boundaries.json).</description>
    
    <Placemark>
      <name>T07 - Jardim Iracema A</name>
      <description><![CDATA[Importado de t07.kml (1 poligono(s), 3 pontos)]]></description>
      <Style>
        <LineStyle><color>ff00d6ff</color><width>3.5</width></LineStyle>
        <PolyStyle><color>4600d6ff</color></PolyStyle>
      </Style>
      <Polygon><outerBoundaryIs><LinearRing><coordinates>-46.78411605,-23.6383001,0 -46.7831044,-23.6378605,0 -46.7835906,-23.64014085,0 -46.78411605,-23.6383001,0</coordinates></LinearRing></outerBoundaryIs></Polygon>
    </Placemark>
  </Document>
</kml>
