<?xml version="1.0" encoding="UTF-8"?>
<kml xmlns="http://www.opengis.net/kml/2.2">
  <Document>
    <name>T09 · Jardim Helga E</name>
    
    <Placemark>
      <name>T09 - Jardim Helga E</name>
      <description><![CDATA[Cantos = intersecoes das ruas do cartao]]></description>
      <Style>
        <LineStyle><color>ff00d6ff</color><width>3.5</width></LineStyle>
        <PolyStyle><color>4600d6ff</color></PolyStyle>
      </Style>
      <Polygon><outerBoundaryIs><LinearRing><coordinates>-46.7721585,-23.6407932,0 -46.7731577,-23.6406147,0 -46.7721585,-23.6407932,0 -46.7721585,-23.6407932,0</coordinates></LinearRing></outerBoundaryIs></Polygon>
    </Placemark>
  </Document>
</kml>
