<?xml version="1.0" encoding="UTF-8"?>
<kml xmlns="http://www.opengis.net/kml/2.2">
  <Document>
    <name>T11 · Jd Leônidas Moreira B</name>
    <description>Poligonos importados do Google Earth (territory-boundaries.json).</description>
    
    <Style id="terrStyle">
      <LineStyle><color>ffd600ff</color><width>3.5</width></LineStyle>
      <PolyStyle><color>46ffd600</color></PolyStyle>
    </Style>
    
    <Placemark>
      <name>T11 - Jd Leônidas Moreira B</name>
      <description><![CDATA[[needs_review] Importado de t11.kml (1 poligono(s), 4 pontos)]]></description>
      <styleUrl>#terrStyle</styleUrl>
      <Polygon><outerBoundaryIs><LinearRing><coordinates>-46.779744,-23.638267,0 -46.779564,-23.641767,0 -46.777824,-23.642659,0 -46.777286,-23.641997,0 -46.779744,-23.638267,0</coordinates></LinearRing></outerBoundaryIs></Polygon>
    </Placemark>
  </Document>
</kml>
