<?xml version="1.0" encoding="UTF-8"?>
<kml xmlns="http://www.opengis.net/kml/2.2">
  <Document>
    <name>T12 · Jd Leônidas Moreira C</name>
    <description>Poligonos importados do Google Earth (territory-boundaries.json).</description>
    
    <Placemark>
      <name>T12 - Jd Leônidas Moreira C</name>
      <description><![CDATA[Importado de t12.kml (1 poligono(s), 4 pontos)]]></description>
      <Style>
        <LineStyle><color>ff00d6ff</color><width>3.5</width></LineStyle>
        <PolyStyle><color>4600d6ff</color></PolyStyle>
      </Style>
      <Polygon><outerBoundaryIs><LinearRing><coordinates>-46.7789329,-23.64311015,0 -46.7795099,-23.6444784,0 -46.7779509,-23.6435518,0 -46.7782094,-23.6431089,0 -46.7789329,-23.64311015,0</coordinates></LinearRing></outerBoundaryIs></Polygon>
    </Placemark>
  </Document>
</kml>
