<?xml version="1.0" encoding="UTF-8"?>
<kml xmlns="http://www.opengis.net/kml/2.2">
  <Document>
    <name>T14 · CDHU B</name>
    <description>Poligonos importados do Google Earth (territory-boundaries.json).</description>
    
    <Placemark>
      <name>T14 - CDHU B</name>
      <description><![CDATA[Importado de t14.kml (1 poligono(s), 4 pontos)]]></description>
      <Style>
        <LineStyle><color>ff00d6ff</color><width>3.5</width></LineStyle>
        <PolyStyle><color>4600d6ff</color></PolyStyle>
      </Style>
      <Polygon><outerBoundaryIs><LinearRing><coordinates>-46.77618,-23.64058,0 -46.77502,-23.64058,0 -46.77502,-23.64108,0 -46.77618,-23.64108,0 -46.77618,-23.64058,0</coordinates></LinearRing></outerBoundaryIs></Polygon>
    </Placemark>
  </Document>
</kml>
