<?xml version="1.0" encoding="UTF-8"?>
<kml xmlns="http://www.opengis.net/kml/2.2">
  <Document>
    <name>T15 · CDHU C</name>
    
    <Placemark>
      <name>T15 - CDHU C</name>
      <description><![CDATA[Subdivisão C do CDHU]]></description>
      <Style>
        <LineStyle><color>ff00d6ff</color><width>3.5</width></LineStyle>
        <PolyStyle><color>4600d6ff</color></PolyStyle>
      </Style>
      <Polygon><outerBoundaryIs><LinearRing><coordinates>-46.7742381,-23.6407393,0 -46.771438100000005,-23.6407393,0 -46.771438100000005,-23.6379393,0 -46.7742381,-23.6379393,0 -46.7742381,-23.6407393,0</coordinates></LinearRing></outerBoundaryIs></Polygon>
    </Placemark>
  </Document>
</kml>
