<?xml version="1.0" encoding="UTF-8"?>
<kml xmlns="http://www.opengis.net/kml/2.2">
  <Document>
    <name>T19 · Jardim Helga D</name>
    
    <Placemark>
      <name>T19 - Jardim Helga D</name>
      <description><![CDATA[Perimetro OSM: Mitim/Guerreiro x Avenida Ibi]]></description>
      <Style>
        <LineStyle><color>ff00d6ff</color><width>3.5</width></LineStyle>
        <PolyStyle><color>4600d6ff</color></PolyStyle>
      </Style>
      <Polygon><outerBoundaryIs><LinearRing><coordinates>-46.77537,-23.64344,0 -46.77596,-23.64276,0 -46.77575,-23.64429,0 -46.77448,-23.64482,0 -46.77537,-23.64344,0</coordinates></LinearRing></outerBoundaryIs></Polygon>
    </Placemark>
  </Document>
</kml>
