<?xml version="1.0" encoding="UTF-8"?>
<kml xmlns="http://www.opengis.net/kml/2.2">
  <Document>
    <name>Jardim Elizabeth — Territorios</name>
    <description>Poligonos importados do Google Earth (territory-boundaries.json).</description>
    
    <Style id="terrStyle">
      <LineStyle><color>ffd600ff</color><width>3.5</width></LineStyle>
      <PolyStyle><color>46ffd600</color></PolyStyle>
    </Style>
    
    <Placemark>
      <name>T01 - Campo Limpo</name>
      <description><![CDATA[[needs_review] Importado de t01.kml (1 poligono(s), 5 pontos)]]></description>
      <styleUrl>#terrStyle</styleUrl>
      <Polygon><outerBoundaryIs><LinearRing><coordinates>-46.779795,-23.63901,0 -46.778815,-23.637695,0 -46.777254,-23.634842,0 -46.776105,-23.633977,0 -46.775423,-23.634716,0 -46.779795,-23.63901,0</coordinates></LinearRing></outerBoundaryIs></Polygon>
    </Placemark>
    <Placemark>
      <name>T02 - Jardim Elizabeth A</name>
      <description><![CDATA[[needs_review] Importado de t02.kml (1 poligono(s), 4 pontos)]]></description>
      <styleUrl>#terrStyle</styleUrl>
      <Polygon><outerBoundaryIs><LinearRing><coordinates>-46.774902,-23.638302,0 -46.773444,-23.640153,0 -46.776314,-23.639216,0 -46.776524,-23.638964,0 -46.774902,-23.638302,0</coordinates></LinearRing></outerBoundaryIs></Polygon>
    </Placemark>
    <Placemark>
      <name>T03 - Jardim Elizabeth B</name>
      <description><![CDATA[[needs_review] Importado de t03.kml (1 poligono(s), 4 pontos)]]></description>
      <styleUrl>#terrStyle</styleUrl>
      <Polygon><outerBoundaryIs><LinearRing><coordinates>-46.77559,-23.637406,0 -46.776945,-23.638306,0 -46.776393,-23.638942,0 -46.773444,-23.640153,0 -46.77559,-23.637406,0</coordinates></LinearRing></outerBoundaryIs></Polygon>
    </Placemark>
    <Placemark>
      <name>T04 - Jardim Elizabeth C</name>
      <description><![CDATA[[needs_review] Importado de t04.kml (1 poligono(s), 4 pontos)]]></description>
      <styleUrl>#terrStyle</styleUrl>
      <Polygon><outerBoundaryIs><LinearRing><coordinates>-46.775593,-23.63491,0 -46.77559,-23.637406,0 -46.776945,-23.638306,0 -46.775955,-23.635121,0 -46.775593,-23.63491,0</coordinates></LinearRing></outerBoundaryIs></Polygon>
    </Placemark>
    <Placemark>
      <name>T05 - Jardim Elizabeth D</name>
      <description><![CDATA[[needs_review] Importado de t05.kml (1 poligono(s), 4 pontos)]]></description>
      <styleUrl>#terrStyle</styleUrl>
      <Polygon><outerBoundaryIs><LinearRing><coordinates>-46.776261,-23.640478,0 -46.776544,-23.64101,0 -46.778342,-23.640518,0 -46.776353,-23.641974,0 -46.776261,-23.640478,0</coordinates></LinearRing></outerBoundaryIs></Polygon>
    </Placemark>
    <Placemark>
      <name>T06 - Vila Pirajussara</name>
      <description><![CDATA[[needs_review] Importado de t06.kml (1 poligono(s), 4 pontos)]]></description>
      <styleUrl>#terrStyle</styleUrl>
      <Polygon><outerBoundaryIs><LinearRing><coordinates>-46.77393,-23.638499,0 -46.773134,-23.640354,0 -46.773416,-23.640432,0 -46.774135,-23.638766,0 -46.77393,-23.638499,0</coordinates></LinearRing></outerBoundaryIs></Polygon>
    </Placemark>
    <Placemark>
      <name>T07 - Jardim Iracema A</name>
      <description><![CDATA[[needs_review] Importado de t07.kml (1 poligono(s), 3 pontos)]]></description>
      <styleUrl>#terrStyle</styleUrl>
      <Polygon><outerBoundaryIs><LinearRing><coordinates>-46.784116,-23.6383,0 -46.783104,-23.63786,0 -46.783591,-23.640141,0 -46.784116,-23.6383,0</coordinates></LinearRing></outerBoundaryIs></Polygon>
    </Placemark>
    <Placemark>
      <name>T08 - Jardim Iracema B</name>
      <description><![CDATA[[needs_review] Importado de t08.kml (1 poligono(s), 4 pontos)]]></description>
      <styleUrl>#terrStyle</styleUrl>
      <Polygon><outerBoundaryIs><LinearRing><coordinates>-46.7839,-23.641288,0 -46.78335,-23.641067,0 -46.783305,-23.640075,0 -46.783591,-23.640141,0 -46.7839,-23.641288,0</coordinates></LinearRing></outerBoundaryIs></Polygon>
    </Placemark>
    <Placemark>
      <name>T09 - Jardim Helga E</name>
      <description><![CDATA[[needs_review] Importado de t09.kml (1 poligono(s), 3 pontos)]]></description>
      <styleUrl>#terrStyle</styleUrl>
      <Polygon><outerBoundaryIs><LinearRing><coordinates>-46.773472,-23.640945,0 -46.772852,-23.640276,0 -46.772059,-23.640599,0 -46.773472,-23.640945,0</coordinates></LinearRing></outerBoundaryIs></Polygon>
    </Placemark>
    <Placemark>
      <name>T10 - Jd Leônidas Moreira A</name>
      <description><![CDATA[[needs_review] Importado de t10.kml (1 poligono(s), 4 pontos)]]></description>
      <styleUrl>#terrStyle</styleUrl>
      <Polygon><outerBoundaryIs><LinearRing><coordinates>-46.776505,-23.64072,0 -46.775213,-23.642601,0 -46.778649,-23.638861,0 -46.777286,-23.641997,0 -46.776505,-23.64072,0</coordinates></LinearRing></outerBoundaryIs></Polygon>
    </Placemark>
    <Placemark>
      <name>T11 - Jd Leônidas Moreira B</name>
      <description><![CDATA[[needs_review] Importado de t11.kml (1 poligono(s), 4 pontos)]]></description>
      <styleUrl>#terrStyle</styleUrl>
      <Polygon><outerBoundaryIs><LinearRing><coordinates>-46.779744,-23.638267,0 -46.779564,-23.641767,0 -46.777824,-23.642659,0 -46.777286,-23.641997,0 -46.779744,-23.638267,0</coordinates></LinearRing></outerBoundaryIs></Polygon>
    </Placemark>
    <Placemark>
      <name>T12 - Jd Leônidas Moreira C</name>
      <description><![CDATA[[needs_review] Importado de t12.kml (1 poligono(s), 4 pontos)]]></description>
      <styleUrl>#terrStyle</styleUrl>
      <Polygon><outerBoundaryIs><LinearRing><coordinates>-46.778933,-23.64311,0 -46.77951,-23.644478,0 -46.777951,-23.643552,0 -46.778209,-23.643109,0 -46.778933,-23.64311,0</coordinates></LinearRing></outerBoundaryIs></Polygon>
    </Placemark>
    <Placemark>
      <name>T13 - CDHU A</name>
      <description><![CDATA[[draft] Importado de t13.kml (3 poligono(s), 12 pontos)]]></description>
      <styleUrl>#terrStyle</styleUrl>
      <MultiGeometry><Polygon><outerBoundaryIs><LinearRing><coordinates>-46.77618,-23.63905,0 -46.77502,-23.63905,0 -46.77502,-23.64058,0 -46.77618,-23.64058,0 -46.77618,-23.63905,0</coordinates></LinearRing></outerBoundaryIs></Polygon><Polygon><outerBoundaryIs><LinearRing><coordinates>-46.77458,-23.63948,0 -46.77372,-23.63948,0 -46.77372,-23.64048,0 -46.77458,-23.64048,0 -46.77458,-23.63948,0</coordinates></LinearRing></outerBoundaryIs></Polygon><Polygon><outerBoundaryIs><LinearRing><coordinates>-46.77478,-23.64058,0 -46.77402,-23.64058,0 -46.77402,-23.64108,0 -46.77478,-23.64108,0 -46.77478,-23.64058,0</coordinates></LinearRing></outerBoundaryIs></Polygon></MultiGeometry>
    </Placemark>
    <Placemark>
      <name>T14 - CDHU B</name>
      <description><![CDATA[[needs_review] Importado de t14.kml (1 poligono(s), 4 pontos)]]></description>
      <styleUrl>#terrStyle</styleUrl>
      <Polygon><outerBoundaryIs><LinearRing><coordinates>-46.77618,-23.64058,0 -46.77502,-23.64058,0 -46.77502,-23.64108,0 -46.77618,-23.64108,0 -46.77618,-23.64058,0</coordinates></LinearRing></outerBoundaryIs></Polygon>
    </Placemark>
    <Placemark>
      <name>T15 - CDHU C</name>
      <description><![CDATA[[draft] Importado de t15.kml (2 poligono(s), 8 pontos)]]></description>
      <styleUrl>#terrStyle</styleUrl>
      <MultiGeometry><Polygon><outerBoundaryIs><LinearRing><coordinates>-46.77502,-23.63948,0 -46.77418,-23.63948,0 -46.77418,-23.64058,0 -46.77502,-23.64058,0 -46.77502,-23.63948,0</coordinates></LinearRing></outerBoundaryIs></Polygon><Polygon><outerBoundaryIs><LinearRing><coordinates>-46.77502,-23.63982,0 -46.77432,-23.63982,0 -46.77432,-23.64028,0 -46.77502,-23.64028,0 -46.77502,-23.63982,0</coordinates></LinearRing></outerBoundaryIs></Polygon></MultiGeometry>
    </Placemark>
    <Placemark>
      <name>T16 - Jardim Helga A</name>
      <description><![CDATA[[needs_review] Importado de t16.kml (1 poligono(s), 3 pontos)]]></description>
      <styleUrl>#terrStyle</styleUrl>
      <Polygon><outerBoundaryIs><LinearRing><coordinates>-46.772109,-23.640797,0 -46.772244,-23.642071,0 -46.771476,-23.640893,0 -46.772109,-23.640797,0</coordinates></LinearRing></outerBoundaryIs></Polygon>
    </Placemark>
    <Placemark>
      <name>T17 - Jardim Helga B</name>
      <description><![CDATA[[needs_review] Importado de t17.kml (1 poligono(s), 3 pontos)]]></description>
      <styleUrl>#terrStyle</styleUrl>
      <Polygon><outerBoundaryIs><LinearRing><coordinates>-46.772244,-23.642071,0 -46.771476,-23.640893,0 -46.772109,-23.640797,0 -46.772244,-23.642071,0</coordinates></LinearRing></outerBoundaryIs></Polygon>
    </Placemark>
    <Placemark>
      <name>T18 - Jardim Helga C</name>
      <description><![CDATA[[needs_review] Importado de t18.kml (1 poligono(s), 4 pontos)]]></description>
      <styleUrl>#terrStyle</styleUrl>
      <Polygon><outerBoundaryIs><LinearRing><coordinates>-46.77349,-23.64614,0 -46.77343,-23.64438,0 -46.77396,-23.64573,0 -46.7726,-23.64644,0 -46.77349,-23.64614,0</coordinates></LinearRing></outerBoundaryIs></Polygon>
    </Placemark>
    <Placemark>
      <name>T19 - Jardim Helga D</name>
      <description><![CDATA[[needs_review] Importado de t19.kml (1 poligono(s), 4 pontos)]]></description>
      <styleUrl>#terrStyle</styleUrl>
      <Polygon><outerBoundaryIs><LinearRing><coordinates>-46.77537,-23.64344,0 -46.77596,-23.64276,0 -46.77575,-23.64429,0 -46.77448,-23.64482,0 -46.77537,-23.64344,0</coordinates></LinearRing></outerBoundaryIs></Polygon>
    </Placemark>
  </Document>
</kml>
